[{"OBJECT_NAME":"STARLINK-31928","OBJECT_ID":"2024-100N","EPOCH":"2026-03-09T13:25:35.319648","MEAN_MOTION":15.27576798,"ECCENTRICITY":0.0001814,"INCLINATION":43.0044,"RA_OF_ASC_NODE":126.422,"ARG_OF_PERICENTER":274.138,"MEAN_ANOMALY":85.9265,"EPHEMERIS_TYPE":0,"CLASSIFICATION_TYPE":"U","NORAD_CAT_ID":59897,"ELEMENT_SET_NO":999,"REV_AT_EPOCH":10103,"BSTAR":-7.9884e-5,"MEAN_MOTION_DOT":-2.46e-5,"MEAN_MOTION_DDOT":0},{"OBJECT_NAME":"ARCSTONE","OBJECT_ID":"2025-135N","EPOCH":"2026-03-09T21:21:29.017152","MEAN_MOTION":15.28638458,"ECCENTRICITY":0.00041199,"INCLINATION":97.4495,"RA_OF_ASC_NODE":185.9194,"ARG_OF_PERICENTER":166.7863,"MEAN_ANOMALY":193.3485,"EPHEMERIS_TYPE":0,"CLASSIFICATION_TYPE":"U","NORAD_CAT_ID":64540,"ELEMENT_SET_NO":999,"REV_AT_EPOCH":3984,"BSTAR":0.00094899777,"MEAN_MOTION_DOT":0.00026427,"MEAN_MOTION_DDOT":0}]
